GLOBALSTAR M057         
1 25943U 99058A   25007.59348888 -.00000055  00000+0  34127-3 0  9991
2 25943  51.9993  83.9628 0002655  64.2189 295.8934 12.24806679147259
GLOBALSTAR M059         
1 25944U 99058B   25007.82299691 -.00000093  00000+0 -84597-4 0  9995
2 25944  52.0024 281.0098 0001037  43.5584 358.5156 11.99972503554796
GLOBALSTAR M056         
1 25945U 99058C   25007.49634132 -.00000096  00000+0 -96821-4 0  9998
2 25945  51.9971 287.9764 0000173 225.1898 305.5926 12.04775836143256
GLOBALSTAR M031         
1 25946U 99058D   25007.98853903  .00000012  00000+0  10440-2 0  9999
2 25946  51.9932 188.5535 0001335 156.8949  14.5428 12.16027356145058
GLOBALSTAR M039         
1 25961U 99062A   25008.14109086 -.00000084  00000+0  10848-3 0  9999
2 25961  51.9860  36.1821 0002475 359.6092   0.4773 12.62314940160030
GLOBALSTAR M034         
1 25962U 99062B   25007.88584226 -.00000108  00000+0 -42139-3 0  9999
2 25962  51.9886  68.0776 0014454  99.9941  71.1197 11.79439238119471
GLOBALSTAR M029         
1 25963U 99062C   25007.84532229 -.00000048  00000+0  47834-3 0  9991
2 25963  51.9774 169.1208 0003331 143.1541   2.5715 11.99890230149877
GLOBALSTAR M061         
1 25964U 99062D   25007.83621625 -.00000050  00000+0  50454-3 0  9995
2 25964  51.9774 250.1162 0006866  30.0725  15.0958 11.76770243102303
